{
  "type": "FeatureCollection",
  "features": [
    {
      "type": "Feature",
      "properties": {
        "norad_id": 66436,
        "name": "STARLINK-35501",
        "group": "last-30-days",
        "lat": -35.71732562167039,
        "lon": 14.164532661239939,
        "alt_km": 446.37513250074517,
        "timestamp": "2025-12-09T18:55:16.021316+00:00",
        "meta_object_name": "STARLINK-35501",
        "meta_object_id": "2025-259Q",
        "meta_epoch": "2025-12-09T16:00:01.999584",
        "meta_mean_motion": 15.40627142,
        "meta_eccentricity": 0.00012497,
        "meta_inclination": 43.0003,
        "meta_ra_of_asc_node": 65.3642,
        "meta_arg_of_pericenter": 305.0721,
        "meta_mean_anomaly": 40.339,
        "meta_ephemeris_type": 0,
        "meta_classification_type": "U",
        "meta_norad_cat_id": 66436,
        "meta_element_set_no": 999,
        "meta_rev_at_epoch": 578,
        "meta_bstar": 0.0024368857,
        "meta_mean_motion_dot": 0.00102621,
        "meta_mean_motion_ddot": 0,
        "tle_line1": "1 66436U 25259Q   25343.66668981  .00102621  00000+0  24369-2 0  9992",
        "tle_line2": "2 66436  43.0003  65.3642 0001249 305.0721  40.3390 15.40627142  5788"
      },
      "geometry": {
        "type": "Point",
        "coordinates": [
          14.164532661239939,
          -35.71732562167039
        ]
      }
    },
    {
      "type": "Feature",
      "properties": {
        "norad_id": 66437,
        "name": "STARLINK-35474",
        "group": "last-30-days",
        "lat": -29.62250839206382,
        "lon": 27.02956126683403,
        "alt_km": 445.7608433155019,
        "timestamp": "2025-12-09T18:55:16.021327+00:00",
        "meta_object_name": "STARLINK-35474",
        "meta_object_id": "2025-259R",
        "meta_epoch": "2025-12-09T16:00:01.999584",
        "meta_mean_motion": 15.40751204,
        "meta_eccentricity": 0.00014412,
        "meta_inclination": 43.0001,
        "meta_ra_of_asc_node": 65.3334,
        "meta_arg_of_pericenter": 289.529,
        "meta_mean_anomaly": 68.2807,
        "meta_ephemeris_type": 0,
        "meta_classification_type": "U",
        "meta_norad_cat_id": 66437,
        "meta_element_set_no": 999,
        "meta_rev_at_epoch": 578,
        "meta_bstar": -0.0029098973,
        "meta_mean_motion_dot": -0.00120167,
        "meta_mean_motion_ddot": 0,
        "tle_line1": "1 66437U 25259R   25343.66668981 -.00120167  00000+0 -29099-2 0  9995",
        "tle_line2": "2 66437  43.0001  65.3334 0001441 289.5290  68.2807 15.40751204  5785"
      },
      "geometry": {
        "type": "Point",
        "coordinates": [
          27.02956126683403,
          -29.62250839206382
        ]
      }
    },
    {
      "type": "Feature",
      "properties": {
        "norad_id": 66438,
        "name": "STARLINK-34681",
        "group": "last-30-days",
        "lat": -22.75505310104721,
        "lon": 37.85324416739359,
        "alt_km": 441.7651015897454,
        "timestamp": "2025-12-09T18:55:16.021337+00:00",
        "meta_object_name": "STARLINK-34681",
        "meta_object_id": "2025-259S",
        "meta_epoch": "2025-12-09T16:00:01.999584",
        "meta_mean_motion": 15.4256789,
        "meta_eccentricity": 0.00015183,
        "meta_inclination": 43.0002,
        "meta_ra_of_asc_node": 65.307,
        "meta_arg_of_pericenter": 287.2323,
        "meta_mean_anomaly": 81.8207,
        "meta_ephemeris_type": 0,
        "meta_classification_type": "U",
        "meta_norad_cat_id": 66438,
        "meta_element_set_no": 999,
        "meta_rev_at_epoch": 567,
        "meta_bstar": -0.057877462,
        "meta_mean_motion_dot": -0.02299456,
        "meta_mean_motion_ddot": 0,
        "tle_line1": "1 66438U 25259S   25343.66668981 -.02299456  00000+0 -57877-1 0  9990",
        "tle_line2": "2 66438  43.0002  65.3070 0001518 287.2323  81.8207 15.42567890  5672"
      },
      "geometry": {
        "type": "Point",
        "coordinates": [
          37.85324416739359,
          -22.75505310104721
        ]
      }
    },
    {
      "type": "Feature",
      "properties": {
        "norad_id": 66439,
        "name": "STARLINK-35327",
        "group": "last-30-days",
        "lat": -40.24715580140962,
        "lon": -0.5847968398594223,
        "alt_km": 446.93885327912903,
        "timestamp": "2025-12-09T18:55:16.021348+00:00",
        "meta_object_name": "STARLINK-35327",
        "meta_object_id": "2025-259T",
        "meta_epoch": "2025-12-09T16:00:01.999584",
        "meta_mean_motion": 15.40611685,
        "meta_eccentricity": 8.004e-05,
        "meta_inclination": 43.0004,
        "meta_ra_of_asc_node": 65.3972,
        "meta_arg_of_pericenter": 300.0096,
        "meta_mean_anomaly": 32.9085,
        "meta_ephemeris_type": 0,
        "meta_classification_type": "U",
        "meta_norad_cat_id": 66439,
        "meta_element_set_no": 999,
        "meta_rev_at_epoch": 578,
        "meta_bstar": 0.0029706295,
        "meta_mean_motion_dot": 0.00125479,
        "meta_mean_motion_ddot": 0,
        "tle_line1": "1 66439U 25259T   25343.66668981  .00125479  00000+0  29706-2 0  9991",
        "tle_line2": "2 66439  43.0004  65.3972 0000800 300.0096  32.9085 15.40611685  5783"
      },
      "geometry": {
        "type": "Point",
        "coordinates": [
          -0.5847968398594223,
          -40.24715580140962
        ]
      }
    },
    {
      "type": "Feature",
      "properties": {
        "norad_id": 66440,
        "name": "STARLINK-35405",
        "group": "last-30-days",
        "lat": -16.17883508087057,
        "lon": 46.43865367976513,
        "alt_km": 437.63084810078635,
        "timestamp": "2025-12-09T18:55:16.021358+00:00",
        "meta_object_name": "STARLINK-35405",
        "meta_object_id": "2025-259U",
        "meta_epoch": "2025-12-09T16:00:01.999584",
        "meta_mean_motion": 15.43724762,
        "meta_eccentricity": 0.00016457,
        "meta_inclination": 43.0005,
        "meta_ra_of_asc_node": 65.2829,
        "meta_arg_of_pericenter": 283.8865,
        "meta_mean_anomaly": 95.0832,
        "meta_ephemeris_type": 0,
        "meta_classification_type": "U",
        "meta_norad_cat_id": 66440,
        "meta_element_set_no": 999,
        "meta_rev_at_epoch": 578,
        "meta_bstar": -0.047284371,
        "meta_mean_motion_dot": -0.01954229,
        "meta_mean_motion_ddot": 0,
        "tle_line1": "1 66440U 25259U   25343.66668981 -.01954229  00000+0 -47284-1 0  9999",
        "tle_line2": "2 66440  43.0005  65.2829 0001645 283.8865  95.0832 15.43724762  5780"
      },
      "geometry": {
        "type": "Point",
        "coordinates": [
          46.43865367976513,
          -16.17883508087057
        ]
      }
    },
    {
      "type": "Feature",
      "properties": {
        "norad_id": 66441,
        "name": "STARLINK-35426",
        "group": "last-30-days",
        "lat": 1.4056560515098335,
        "lon": 66.01979452910399,
        "alt_km": 418.51625948449146,
        "timestamp": "2025-12-09T18:55:16.021368+00:00",
        "meta_object_name": "STARLINK-35426",
        "meta_object_id": "2025-259V",
        "meta_epoch": "2025-12-09T12:43:52.511232",
        "meta_mean_motion": 15.51236843,
        "meta_eccentricity": 0.00176609,
        "meta_inclination": 42.9997,
        "meta_ra_of_asc_node": 66.0214,
        "meta_arg_of_pericenter": 239.7081,
        "meta_mean_anomaly": 120.2032,
        "meta_ephemeris_type": 0,
        "meta_classification_type": "U",
        "meta_norad_cat_id": 66441,
        "meta_element_set_no": 999,
        "meta_rev_at_epoch": 567,
        "meta_bstar": 0.0030181859,
        "meta_mean_motion_dot": 0.0018636,
        "meta_mean_motion_ddot": 0,
        "tle_line1": "1 66441U 25259V   25343.53046888  .00186360  00000+0  30182-2 0  9992",
        "tle_line2": "2 66441  42.9997  66.0214 0017660 239.7081 120.2032 15.51236843  5678"
      },
      "geometry": {
        "type": "Point",
        "coordinates": [
          66.01979452910399,
          1.4056560515098335
        ]
      }
    },
    {
      "type": "Feature",
      "properties": {
        "norad_id": 66442,
        "name": "STARLINK-34724",
        "group": "last-30-days",
        "lat": 1.0363315786424045,
        "lon": 65.62623495285614,
        "alt_km": 411.2076689967207,
        "timestamp": "2025-12-09T18:55:16.021378+00:00",
        "meta_object_name": "STARLINK-34724",
        "meta_object_id": "2025-259W",
        "meta_epoch": "2025-12-09T12:43:54.176160",
        "meta_mean_motion": 15.50769922,
        "meta_eccentricity": 0.00085157,
        "meta_inclination": 43.0007,
        "meta_ra_of_asc_node": 66.0233,
        "meta_arg_of_pericenter": 297.0016,
        "meta_mean_anomaly": 62.9974,
        "meta_ephemeris_type": 0,
        "meta_classification_type": "U",
        "meta_norad_cat_id": 66442,
        "meta_element_set_no": 999,
        "meta_rev_at_epoch": 567,
        "meta_bstar": 0.003098413,
        "meta_mean_motion_dot": 0.00187316,
        "meta_mean_motion_ddot": 0,
        "tle_line1": "1 66442U 25259W   25343.53048815  .00187316  00000+0  30984-2 0  9997",
        "tle_line2": "2 66442  43.0007  66.0233 0008515 297.0016  62.9974 15.50769922  5673"
      },
      "geometry": {
        "type": "Point",
        "coordinates": [
          65.62623495285614,
          1.0363315786424045
        ]
      }
    }
  ]
}